
# Worst residual: 7.68 km
# MJD 52815.000000 (2003 Jun 25  0:00)
1973-078A = IMP-8 = NORAD 06893
1 06893U 73078A   03176.49925713  .00000000  00000-0  00000-0 0    01
2 06893 044.3320 082.4946 1203526 135.2775 272.3287 00.08195006    06

# Worst residual: 13.14 km
# MJD 52816.000000 (2003 Jun 26  0:00)
1973-078A = IMP-8 = NORAD 06893
1 06893U 73078A   03177.49925713  .00000000  00000-0  00000-0 0    02
2 06893 044.3581 082.4494 1213583 135.8957 301.3925 00.08208355    09

# Worst residual: 23.00 km
# MJD 52817.000000 (2003 Jun 27  0:00)
1973-078A = IMP-8 = NORAD 06893
1 06893U 73078A   03178.49925713  .00000000  00000-0  00000-0 0    03
2 06893 044.3820 082.4133 1236517 136.3351 330.7575 00.08196502    08

# Worst residual: 30.45 km
# MJD 52818.000000 (2003 Jun 28  0:00)
1973-078A = IMP-8 = NORAD 06893
1 06893U 73078A   03179.49925713  .00000000  00000-0  00000-0 0    04
2 06893 044.3908 082.3966 1282897 137.1096 359.7357 00.08141939    08

# Worst residual: 28.21 km
# MJD 52819.000000 (2003 Jun 29  0:00)
1973-078A = IMP-8 = NORAD 06893
1 06893U 73078A   03180.49925713  .00000000  00000-0  00000-0 0    06
2 06893 044.3786 082.3703 1328468 138.9523 027.4015 00.08064499    05

# Worst residual: 18.88 km
# MJD 52820.000000 (2003 Jun 30  0:00)
1973-078A = IMP-8 = NORAD 06893
1 06893U 73078A   03181.49925713  .00000000  00000-0  00000-0 0    07
2 06893 044.3758 082.3158 1334636 140.8490 054.7416 00.08015515    00

# Worst residual: 18.33 km
# MJD 52821.000000 (2003 Jul  1  0:00)
1973-078A = IMP-8 = NORAD 06893
1 06893U 73078A   03182.49925713  .00000000  00000-0  00000-0 0    08
2 06893 044.4031 082.2678 1310895 140.9277 083.7930 00.08024339    03

# Worst residual: 22.65 km
# MJD 52822.000000 (2003 Jul  2  0:00)
1973-078A = IMP-8 = NORAD 06893
1 06893U 73078A   03183.49925713  .00000000  00000-0  00000-0 0    09
2 06893 044.4409 082.2522 1299394 139.1243 114.8341 00.08072503    01

# Worst residual: 22.32 km
# MJD 52823.000000 (2003 Jul  3  0:00)
1973-078A = IMP-8 = NORAD 06893
1 06893U 73078A   03184.49925713  .00000000  00000-0  00000-0 0    00
2 06893 044.4678 082.2494 1315262 136.9775 146.4260 00.08126909    06

# Worst residual: 17.19 km
# MJD 52824.000000 (2003 Jul  4  0:00)
1973-078A = IMP-8 = NORAD 06893
1 06893U 73078A   03185.49925713  .00000000  00000-0  00000-0 0    01
2 06893 044.4867 082.2288 1345243 135.5939 177.4139 00.08169147    06

# Worst residual: 10.23 km
# MJD 52825.000000 (2003 Jul  5  0:00)
1973-078A = IMP-8 = NORAD 06893
1 06893U 73078A   03186.49925713  .00000000  00000-0  00000-0 0    02
2 06893 044.5149 082.1831 1374109 135.1944 207.4555 00.08198434    05

# Worst residual: 10.23 km
# MJD 52826.000000 (2003 Jul  6  0:00)
1973-078A = IMP-8 = NORAD 06893
1 06893U 73078A   03187.49925713  .00000000  00000-0  00000-0 0    03
2 06893 044.5621 082.1311 1393022 135.6585 236.5818 00.08224482    02

# Worst residual: 14.80 km
# MJD 52827.000000 (2003 Jul  7  0:00)
1973-078A = IMP-8 = NORAD 06893
1 06893U 73078A   03188.49925713  .00000000  00000-0  00000-0 0    04
2 06893 044.6224 082.0961 1396335 136.7443 265.0540 00.08257912    00

# Worst residual: 13.73 km
# MJD 52828.000000 (2003 Jul  8  0:00)
1973-078A = IMP-8 = NORAD 06893
1 06893U 73078A   03189.49925713  .00000000  00000-0  00000-0 0    05
2 06893 044.6810 082.0888 1383634 137.9374 293.5132 00.08298343    09

# Worst residual: 8.14 km
# MJD 52829.000000 (2003 Jul  9  0:00)
1973-078A = IMP-8 = NORAD 06893
1 06893U 73078A   03190.49925713  .00000000  00000-0  00000-0 0    07
2 06893 044.7214 082.1046 1372080 138.5370 322.7868 00.08323446    05

# Worst residual: 26.22 km
# MJD 52830.000000 (2003 Jul 10  0:00)
1973-078A = IMP-8 = NORAD 06893
1 06893U 73078A   03191.49925713  .00000000  00000-0  00000-0 0    08
2 06893 044.7334 082.1105 1398817 138.6823 352.7005 00.08291193    03

# Worst residual: 42.27 km
# MJD 52831.000000 (2003 Jul 11  0:00)
1973-078A = IMP-8 = NORAD 06893
1 06893U 73078A   03192.49925713  .00000000  00000-0  00000-0 0    09
2 06893 044.7611 082.0565 1481538 139.9610 021.3294 00.08169676    00

# Worst residual: 42.66 km
# MJD 52832.000000 (2003 Jul 12  0:00)
1973-078A = IMP-8 = NORAD 06893
1 06893U 73078A   03193.49925713  .00000000  00000-0  00000-0 0    00
2 06893 044.9041 082.0258 1574715 142.1163 048.1963 00.08016545    03

# Worst residual: 45.58 km
# MJD 52833.000000 (2003 Jul 13  0:00)
1973-078A = IMP-8 = NORAD 06893
1 06893U 73078A   03194.49925713  .00000000  00000-0  00000-0 0    01
2 06893 045.0446 082.0942 1612224 139.9839 078.6329 00.08061319    09

# Worst residual: 42.57 km
# MJD 52834.000000 (2003 Jul 14  0:00)
1973-078A = IMP-8 = NORAD 06893
1 06893U 73078A   03195.49925713  .00000000  00000-0  00000-0 0    02
2 06893 045.0887 082.0506 1641410 135.5145 112.4991 00.08221561    04

# Worst residual: 37.26 km
# MJD 52835.000000 (2003 Jul 15  0:00)
1973-078A = IMP-8 = NORAD 06893
1 06893U 73078A   03196.49925713  .00000000  00000-0  00000-0 0    03
2 06893 045.1237 081.9920 1671264 132.5733 145.7660 00.08321721    03

# Worst residual: 32.09 km
# MJD 52836.000000 (2003 Jul 16  0:00)
1973-078A = IMP-8 = NORAD 06893
1 06893U 73078A   03197.49925713  .00000000  00000-0  00000-0 0    04
2 06893 045.1423 081.9730 1690701 130.7269 178.2438 00.08362629    06

# Worst residual: 25.77 km
# MJD 52837.000000 (2003 Jul 17  0:00)
1973-078A = IMP-8 = NORAD 06893
1 06893U 73078A   03198.49925713  .00000000  00000-0  00000-0 0    05
2 06893 045.1372 081.9623 1701418 129.3835 210.2110 00.08365320    06

# Worst residual: 18.03 km
# MJD 52838.000000 (2003 Jul 18  0:00)
1973-078A = IMP-8 = NORAD 06893
1 06893U 73078A   03199.49925713  .00000000  00000-0  00000-0 0    06
2 06893 045.1227 081.9308 1710093 128.3585 241.6929 00.08348813    09

# Worst residual: 9.91 km
# MJD 52839.000000 (2003 Jul 19  0:00)
1973-078A = IMP-8 = NORAD 06893
1 06893U 73078A   03200.49925713  .00000000  00000-0  00000-0 0    09
2 06893 045.1197 081.8766 1720884 127.7649 272.5344 00.08331771    04

# Worst residual: 6.29 km
# MJD 52840.000000 (2003 Jul 20  0:00)
1973-078A = IMP-8 = NORAD 06893
1 06893U 73078A   03201.49925713  .00000000  00000-0  00000-0 0    00
2 06893 045.1405 081.8235 1730386 127.7136 302.6942 00.08327629    02

# Worst residual: 10.94 km
# MJD 52841.000000 (2003 Jul 21  0:00)
1973-078A = IMP-8 = NORAD 06893
1 06893U 73078A   03202.49925713  .00000000  00000-0  00000-0 0    01
2 06893 045.1731 081.8031 1736028 127.9764 332.5221 00.08331589    08
